{"type":"FeatureCollection", "features": [
{"type":"Feature","geometry":{"type":"Point","coordinates":[34.3217,45.327]},"properties":{"oblast":"UA01","name":"АР Крим"}},
{"type":"Feature","geometry":{"type":"Point","coordinates":[28.7007,48.8345]},"properties":{"oblast":"UA05","name":"Вінницька"}},
{"type":"Feature","geometry":{"type":"Point","coordinates":[24.8747,51.1479]},"properties":{"oblast":"UA07","name":"Волинська"}},
{"type":"Feature","geometry":{"type":"Point","coordinates":[35.0135,48.6086]},"properties":{"oblast":"UA12","name":"Дніпропетровська"}},
{"type":"Feature","geometry":{"type":"Point","coordinates":[37.7206,47.9836]},"properties":{"oblast":"UA14","name":"Донецька"}},
{"type":"Feature","geometry":{"type":"Point","coordinates":[28.3641,50.7551]},"properties":{"oblast":"UA18","name":"Житомирська"}},
{"type":"Feature","geometry":{"type":"Point","coordinates":[22.9222,48.4589]},"properties":{"oblast":"UA21","name":"Закарпатська"}},
{"type":"Feature","geometry":{"type":"Point","coordinates":[35.7747,47.2659]},"properties":{"oblast":"UA23","name":"Запорізька"}},
{"type":"Feature","geometry":{"type":"Point","coordinates":[24.6226,48.7137]},"properties":{"oblast":"UA26","name":"Івано-Франківська"}},
{"type":"Feature","geometry":{"type":"Point","coordinates":[30.3821,49.7988]},"properties":{"oblast":"UA32","name":"Київська"}},
{"type":"Feature","geometry":{"type":"Point","coordinates":[32.3445,48.4297]},"properties":{"oblast":"UA35","name":"Кіровоградська"}},
{"type":"Feature","geometry":{"type":"Point","coordinates":[38.9048,49.2521]},"properties":{"oblast":"UA44","name":"Луганська"}},
{"type":"Feature","geometry":{"type":"Point","coordinates":[23.6613,49.6063]},"properties":{"oblast":"UA46","name":"Львівська"}},
{"type":"Feature","geometry":{"type":"Point","coordinates":[31.9781,47.2707]},"properties":{"oblast":"UA48","name":"Миколаївська"}},
{"type":"Feature","geometry":{"type":"Point","coordinates":[30.2706,47.2159]},"properties":{"oblast":"UA51","name":"Одеська"}},
{"type":"Feature","geometry":{"type":"Point","coordinates":[33.7402,49.7317]},"properties":{"oblast":"UA53","name":"Полтавська"}},
{"type":"Feature","geometry":{"type":"Point","coordinates":[26.722,51.3221]},"properties":{"oblast":"UA56","name":"Рівненська"}},
{"type":"Feature","geometry":{"type":"Point","coordinates":[34.7507,50.77]},"properties":{"oblast":"UA59","name":"Сумська"}},
{"type":"Feature","geometry":{"type":"Point","coordinates":[25.5636,49.3211]},"properties":{"oblast":"UA61","name":"Тернопільська"}},
{"type":"Feature","geometry":{"type":"Point","coordinates":[36.5936,49.5344]},"properties":{"oblast":"UA63","name":"Харківська"}},
{"type":"Feature","geometry":{"type":"Point","coordinates":[33.8131,46.7767]},"properties":{"oblast":"UA65","name":"Херсонська"}},
{"type":"Feature","geometry":{"type":"Point","coordinates":[26.9787,49.4914]},"properties":{"oblast":"UA68","name":"Хмельницька"}},
{"type":"Feature","geometry":{"type":"Point","coordinates":[31.7678,49.3992]},"properties":{"oblast":"UA71","name":"Черкаська"}},
{"type":"Feature","geometry":{"type":"Point","coordinates":[25.9442,48.2366]},"properties":{"oblast":"UA73","name":"Чернівецька"}},
{"type":"Feature","geometry":{"type":"Point","coordinates":[31.8124,51.3437]},"properties":{"oblast":"UA74","name":"Чернігівська"}},
{"type":"Feature","geometry":{"type":"Point","coordinates":[33.3916,44.5772]},"properties":{"oblast":"UA85","name":"Севастополь"}},
{"type":"Feature","geometry":{"type":"Point","coordinates":[30.5535,50.4299]},"properties":{"oblast":"UA80","name":"Київ"}}
]}
